QIANFAN-17              
1 60395U 24140S   25336.21668431  .00000081  00000+0  10624-3 0  9998
2 60395  88.9760 300.5227 0013160 233.1139 126.8807 13.50974631 66716
QIANFAN-18              
1 60396U 24140T   25336.27016610  .00000083  00000+0  11025-3 0  9999
2 60396  88.9753 300.0515 0012840 213.2241 146.8105 13.50974615 66110
QIANFAN-19              
1 61552U 24185A   25336.25507892  .00000757  00000+0  38920-3 0  9999
2 61552  88.9822  79.1404 0006192 355.6747   4.4386 14.14279263 68185
QIANFAN-20              
1 61553U 24185B   25336.24708528  .00000653  00000+0  37037-3 0  9991
2 61553  88.9820  79.4546 0006632  38.4153 321.7502 14.08824844 68011
QIANFAN-21              
1 61554U 24185C   25336.27012876  .00000926  00000+0  40793-3 0  9995
2 61554  88.9737  78.2035 0011787  46.7593 313.4580 14.22584585 68482
QIANFAN-22              
1 61555U 24185D   25336.25166231  .00000270  00000+0  22205-3 0  9999
2 61555  88.9804  80.3931 0007397  42.7684 317.4062 13.86296703 67485
QIANFAN-23              
1 61556U 24185E   25336.24524546  .00000666  00000+0  32890-3 0  9996
2 61556  88.9814  78.9562 0007356   6.0727 354.0549 14.16275990 68269
QIANFAN-24              
1 61557U 24185F   25336.28162828  .00000869  00000+0  37414-3 0  9994
2 61557  88.9795  78.3741 0008438 344.4244  15.6687 14.23787018 68536
